NORAD_CAT_ID,OBJECT_NAME,OBJECT_TYPE,EPOCH,MEAN_MOTION,ECCENTRICITY,INCLINATION,RA_OF_ASC_NODE,ARG_OF_PERICENTER,MEAN_ANOMALY,BSTAR,MEAN_MOTION_DOT,MEAN_MOTION_DDOT,TLE_LINE0,TLE_LINE1,TLE_LINE2,SEMIMAJOR_AXIS,PERIOD,APOGEE,PERIGEE,DECAYED
53746.0,STARLINK-4589,PAYLOAD,2024-07-30 21:00:02,15.08851245,0.0001461,53.2168,18.4832,86.7452,273.3707,0.00012715,1.737e-05,0.0,0 STARLINK-4589,1 53746U 22107AY  24212.87503319  .00001737  00000-0  12715-3 0  9991,2 53746  53.2168  18.4832 0001461  86.7452 273.3707 15.08851245105220,6917.846,95.437,540.722,538.7,0.0
53746.0,STARLINK-4589,PAYLOAD,2024-07-31 14:29:18,15.08835581,0.0001779,53.2135,15.2086,112.5494,247.5687,4.1892e-05,3.79e-06,0.0,0 STARLINK-4589,1 53746U 22107AY  24213.60368120  .00000379  00000-0  41892-4 0  9992,2 53746  53.2135  15.2086 0001779 112.5494 247.5687 15.08835581106110,6917.894,95.438,540.99,538.528,0.0
53746.0,STARLINK-4589,PAYLOAD,2024-07-31 20:50:50,15.08840447,0.0001344,53.2169,14.0215,87.0532,273.0614,7.1931e-05,8.57e-06,0.0,0 STARLINK-4589,1 53746U 22107AY  24213.86864046  .00000857  00000-0  71931-4 0  9996,2 53746  53.2169  14.0215 0001344  87.0532 273.0614 15.08840447105373,6917.879,95.438,540.674,538.814,0.0
53746.0,STARLINK-4589,PAYLOAD,2024-08-01 11:09:18,15.08846202,0.0001172,53.2174,11.3449,90.1582,269.9544,0.00020425,2.965e-05,0.0,0 STARLINK-4589,1 53746U 22107AY  24214.46479787  .00002965  00000-0  20425-3 0  9990,2 53746  53.2174  11.3449 0001172  90.1582 269.9544 15.08846202106245,6917.861,95.437,540.537,538.916,0.0
53746.0,STARLINK-4589,PAYLOAD,2024-08-01 20:41:36,15.08865302,0.0001372,53.2184,9.5607,88.2432,271.8717,0.00042056,6.416e-05,0.0,0 STARLINK-4589,1 53746U 22107AY  24214.86222856  .00006416  00000-0  42056-3 0  9996,2 53746  53.2184   9.5607 0001372  88.2432 271.8717 15.08865302105521,6917.803,95.436,540.617,538.719,0.0
53746.0,STARLINK-4589,PAYLOAD,2024-08-02 09:24:42,15.08848047,0.0003175,53.2175,7.1818,101.7683,258.3665,0.00023508,3.456e-05,0.0,0 STARLINK-4589,1 53746U 22107AY  24215.39215783  .00003456  00000-0  23508-3 0  9998,2 53746  53.2175   7.1818 0003175 101.7683 258.3665 15.08848047105609,6917.856,95.437,541.917,537.524,0.0
53746.0,STARLINK-4589,PAYLOAD,2024-08-02 14:10:51,15.08834492,0.0001616,53.2174,6.2899,108.3711,251.7457,-0.00012644,-2.299e-05,0.0,0 STARLINK-4589,1 53746U 22107AY  24215.59087960 -.00002299  00000-0 -12644-3 0  9999,2 53746  53.2174   6.2899 0001616 108.3711 251.7457 15.08834492106415,6917.897,95.438,540.88,538.644,0.0
53746.0,STARLINK-4589,PAYLOAD,2024-08-02 17:21:38,15.08836374,0.0001224,53.2167,5.6957,77.9132,282.1997,5.7989e-06,-1.96e-06,0.0,0 STARLINK-4589,1 53746U 22107AY  24215.72336152 -.00000196  00000-0  57989-5 0  9990,2 53746  53.2167   5.6957 0001224  77.9132 282.1997 15.08836374105651,6917.891,95.438,540.603,538.91,0.0
53746.0,STARLINK-4589,PAYLOAD,2024-08-03 14:01:39,15.08846775,0.000205,53.2158,1.8299,81.9979,278.1246,-3.4889e-05,-8.44e-06,0.0,0 STARLINK-4589,1 53746U 22107AY  24216.58448002 -.00000844  00000-0 -34889-4 0  9997,2 53746  53.2158   1.8299 0002050  81.9979 278.1246 15.08846775106569,6917.86,95.437,541.143,538.307,0.0
53746.0,STARLINK-4589,PAYLOAD,2024-08-03 18:47:48,15.08854131,0.0002068,53.2169,0.936,105.1644,254.9577,0.0005744,8.869e-05,0.0,0 STARLINK-4589,1 53746U 22107AY  24216.78319851  .00008869  00000-0  57440-3 0  9998,2 53746  53.2169   0.9360 0002068 105.1644 254.9577 15.08854131105818,6917.837,95.437,541.133,538.272,0.0
53746.0,STARLINK-4589,PAYLOAD,2024-08-04 02:44:44,15.08840447,0.0001592,53.2164,359.4517,88.7271,271.3903,0.00028816,4.301e-05,0.0,0 STARLINK-4589,1 53746U 22107AY  24217.11440534  .00004301  00000-0  28816-3 0  9991,2 53746  53.2164 359.4517 0001592  88.7271 271.3903 15.08840447105868,6917.879,95.438,540.845,538.643,0.0
53746.0,STARLINK-4589,PAYLOAD,2024-08-04 15:27:49,15.08841627,0.0001066,53.2169,357.0742,96.5973,263.5141,0.00017909,2.564e-05,0.0,0 STARLINK-4589,1 53746U 22107AY  24217.64432361  .00002564  00000-0  17909-3 0  9998,2 53746  53.2169 357.0742 0001066  96.5973 263.5141 15.08841627106723,6917.875,95.437,540.478,539.003,0.0
53746.0,STARLINK-4589,PAYLOAD,2024-08-04 18:38:35,15.08866549,0.0001453,53.2167,356.4804,94.8854,265.2305,0.001272,0.00020029,0.0,0 STARLINK-4589,1 53746U 22107AY  24217.77679977  .00020029  00000-0  12720-2 0  9999,2 53746  53.2167 356.4804 0001453  94.8854 265.2305 15.08866549105968,6917.799,95.436,540.669,538.659,0.0
53746.0,STARLINK-4589,PAYLOAD,2024-08-05 02:35:31,15.08871218,0.0001756,53.217,354.9895,91.2073,268.912,0.0021505,0.00034133,0.0,0 STARLINK-4589,1 53746U 22107AY  24218.10800026  .00034133  00000-0  21505-2 0  9990,2 53746  53.2170 354.9895 0001756  91.2073 268.9120 15.08871218106016,6917.785,95.436,540.865,538.435,0.0
53746.0,STARLINK-4589,PAYLOAD,2024-08-05 15:18:35,15.08868403,0.0001698,53.2183,352.6104,97.5555,262.563,0.0013365,0.00021063,0.0,0 STARLINK-4589,1 53746U 22107AY  24218.63791526  .00021063  00000-0  13365-2 0  9995,2 53746  53.2183 352.6104 0001698  97.5555 262.5630 15.08868403106093,6917.794,95.436,540.833,538.484,0.0
53746.0,STARLINK-4589,PAYLOAD,2024-08-06 02:26:17,15.08863833,0.000148,53.2154,350.5315,85.8273,274.2888,0.00055275,8.526e-05,0.0,0 STARLINK-4589,1 53746U 22107AY  24219.10158964  .00008526  00000-0  55275-3 0  9997,2 53746  53.2154 350.5315 0001480  85.8273 274.2888 15.08863833106163,6917.808,95.436,540.696,538.649,0.0
53746.0,STARLINK-4589,PAYLOAD,2024-08-06 15:09:22,15.08846305,0.0001376,53.2149,348.1542,86.2036,273.9113,9.8356e-05,1.278e-05,0.0,0 STARLINK-4589,1 53746U 22107AY  24219.63151053  .00001278  00000-0  98356-4 0  9992,2 53746  53.2149 348.1542 0001376  86.2036 273.9113 15.08846305107026,6917.861,95.437,540.678,538.774,0.0
53746.0,STARLINK-4589,PAYLOAD,2024-08-06 18:20:08,15.08854919,0.0001793,53.2199,347.556,104.0504,256.0688,0.00044933,6.873e-05,0.0,0 STARLINK-4589,1 53746U 22107AY  24219.76398916  .00006873  00000-0  44933-3 0  9994,2 53746  53.2199 347.5560 0001793 104.0504 256.0688 15.08854919106260,6917.835,95.437,540.94,538.459,0.0
53746.0,STARLINK-4589,PAYLOAD,2024-08-07 11:49:24,15.08829025,0.0001586,53.2156,344.2877,98.6258,261.4914,0.00031404,4.712e-05,0.0,0 STARLINK-4589,1 53746U 22107AY  24220.49263960  .00004712  00000-0  31404-3 0  9995,2 53746  53.2156 344.2877 0001586  98.6258 261.4914 15.08829025106376,6917.914,95.438,540.876,538.682,0.0
53746.0,STARLINK-4589,PAYLOAD,2024-08-08 13:15:34,15.08846429,0.0001475,53.2172,339.5305,101.6835,258.4323,0.0006832,0.00010604,0.0,0 STARLINK-4589,1 53746U 22107AY  24221.55248401  .00010604  00000-0  68320-3 0  9990,2 53746  53.2172 339.5305 0001475 101.6835 258.4323 15.08846429107312,6917.861,95.437,540.746,538.705,0.0
53746.0,STARLINK-4589,PAYLOAD,2024-08-09 00:23:16,15.08847947,0.0001466,53.2177,337.4505,89.4671,270.6489,0.00052617,8.098e-05,0.0,0 STARLINK-4589,1 53746U 22107AY  24222.01616397  .00008098  00000-0  52617-3 0  9991,2 53746  53.2177 337.4505 0001466  89.4671 270.6489 15.08847947106603,6917.856,95.437,540.735,538.707,0.0
53746.0,STARLINK-4589,PAYLOAD,2024-08-09 14:41:44,15.08852482,0.0001323,53.2176,334.7752,99.0237,261.0905,0.00046859,7.18e-05,0.0,0 STARLINK-4589,1 53746U 22107AY  24222.61232194  .00007180  00000-0  46859-3 0  9998,2 53746  53.2176 334.7752 0001323  99.0237 261.0905 15.08852482107476,6917.842,95.437,540.622,538.792,0.0
53746.0,STARLINK-4589,PAYLOAD,2024-08-09 17:52:30,15.08862453,0.0001253,53.2173,334.1767,88.8679,271.2456,0.00067981,0.00010554,0.0,0 STARLINK-4589,1 53746U 22107AY  24222.74479713  .00010554  00000-0  67981-3 0  9990,2 53746  53.2173 334.1767 0001253  88.8679 271.2456 15.08862453107496,6917.812,95.436,540.544,538.81,0.0
53746.0,STARLINK-4589,PAYLOAD,2024-08-10 12:57:09,15.08835854,0.0001435,53.2175,330.6093,85.3206,274.795,5.0986e-05,5.24e-06,0.0,0 STARLINK-4589,1 53746U 22107AY  24223.53968879  .00000524  00000-0  50986-4 0  9998,2 53746  53.2175 330.6093 0001435  85.3206 274.7950 15.08835854106830,6917.893,95.438,540.751,538.765,0.0
53746.0,STARLINK-4589,PAYLOAD,2024-08-10 14:32:32,15.08839561,0.0001831,53.2179,330.3117,50.3815,309.7339,0.00033316,5.018e-05,0.0,0 STARLINK-4589,1 53746U 22107AY  24223.60593038  .00005018  00000-0  33316-3 0  9997,2 53746  53.2179 330.3117 0001831  50.3815 309.7339 15.08839561107623,6917.882,95.438,541.013,538.48,0.0
53746.0,STARLINK-4589,PAYLOAD,2024-08-10 16:07:55,15.08847577,0.0001342,53.2177,330.0126,81.6777,278.4367,0.00078971,0.00012305,0.0,0 STARLINK-4589,1 53746U 22107AY  24223.67216695  .00012305  00000-0  78971-3 0  9998,2 53746  53.2177 330.0126 0001342  81.6777 278.4367 15.08847577106852,6917.857,95.437,540.651,538.794,0.0
53746.0,STARLINK-4589,PAYLOAD,2024-08-11 00:04:51,15.08825049,0.0002009,53.2174,328.5278,84.9342,275.188,0.00042575,6.491e-05,0.0,0 STARLINK-4589,1 53746U 22107AY  24224.00337601  .00006491  00000-0  42575-3 0  9997,2 53746  53.2174 328.5278 0002009  84.9342 275.1880 15.08825049106904,6917.926,95.439,541.181,538.401,0.0
53746.0,STARLINK-4589,PAYLOAD,2024-08-11 06:26:24,15.08837738,0.0002392,53.2175,327.3401,83.328,276.7985,0.0016144,0.00025497,0.0,0 STARLINK-4589,1 53746U 22107AY  24224.26833743  .00025497  00000-0  16144-2 0  9992,2 53746  53.2175 327.3401 0002392  83.3280 276.7985 15.08837738106944,6917.887,95.438,541.407,538.098,0.0
53746.0,STARLINK-4589,PAYLOAD,2024-08-11 23:55:38,15.08860682,0.000246,53.2172,324.0689,86.7861,273.3412,0.0014035,0.00022132,0.0,0 STARLINK-4589,1 53746U 22107AY  24224.99697742  .00022132  00000-0  14035-2 0  9999,2 53746  53.2172 324.0689 0002460  86.7861 273.3412 15.08860682107056,6917.817,95.436,541.384,537.98,0.0
53746.0,STARLINK-4589,PAYLOAD,2024-08-12 15:49:27,15.08930133,0.0001475,53.2169,321.0999,79.6536,280.4622,0.0028111,0.00044846,0.0,0 STARLINK-4589,1 53746U 22107AY  24225.65934667  .00044846  00000-0  28111-2 0  9999,2 53746  53.2169 321.0999 0001475  79.6536 280.4622 15.08930133107150,6917.605,95.432,540.49,538.45,0.0
